{"type":"FeatureCollection","name":"Étang de Cazaux-Sanguinet","source":"OpenStreetMap way 25050617, ODbL","features":[{"type":"Feature","properties":{"name":"Étang de Cazaux-Sanguinet"},"geometry":{"type":"Polygon","coordinates":[[[-1.0749687,44.4872083],[-1.0758247,44.4877873],[-1.0747982,44.4874425],[-1.0743209,44.4880456],[-1.0752315,44.4884917],[-1.0749661,44.4898523],[-1.075779,44.4901364],[-1.0752816,44.4906238],[-1.0764253,44.4908449],[-1.0766094,44.4916804],[-1.0759295,44.4918717],[-1.0774591,44.494519],[-1.0796187,44.4949432],[-1.0839844,44.4947853],[-1.0845357,44.4943565],[-1.0866604,44.4953107],[-1.0876962,44.4951234],[-1.0877363,44.4956497],[-1.0919566,44.4970773],[-1.0943318,44.4967877],[-1.0934558,44.4973736],[-1.0943241,44.4980642],[-1.1010642,44.4991635],[-1.1036493,44.5009011],[-1.1043293,44.5002892],[-1.1045669,44.5008895],[-1.1058232,44.5006065],[-1.1049529,44.5022923],[-1.108788,44.5034668],[-1.1117384,44.5053454],[-1.1134765,44.5028585],[-1.1123715,44.5056448],[-1.1136277,44.5054808],[-1.1158439,44.5063698],[-1.1175153,44.5061316],[-1.1220684,44.5112842],[-1.1327791,44.5162539],[-1.1342473,44.516563],[-1.1373589,44.5149796],[-1.1389387,44.5170129],[-1.1432893,44.5180228],[-1.1439223,44.5201494],[-1.1455048,44.5214766],[-1.1493371,44.5233596],[-1.149122,44.5238267],[-1.1511073,44.5241419],[-1.1516617,44.5248486],[-1.1544216,44.5258536],[-1.1576474,44.5280408],[-1.1562492,44.5280293],[-1.1574414,44.5285254],[-1.1572314,44.528985],[-1.1582255,44.528253],[-1.159272,44.5285582],[-1.1599115,44.5281459],[-1.1583557,44.529449],[-1.1598284,44.5300835],[-1.1606651,44.5284739],[-1.1624711,44.5282468],[-1.1619577,44.5276247],[-1.1626272,44.528019],[-1.1636408,44.5275262],[-1.1630968,44.5270288],[-1.1707789,44.5262213],[-1.1727181,44.5250357],[-1.1743276,44.5253174],[-1.1754477,44.523787],[-1.1740892,44.5236114],[-1.173722,44.5251143],[-1.1718297,44.5239884],[-1.1740498,44.5229608],[-1.1742067,44.5216929],[-1.1750892,44.5210255],[-1.1778961,44.5199134],[-1.1802307,44.5179566],[-1.186402,44.5164645],[-1.1899361,44.5125541],[-1.1927512,44.5116503],[-1.1947377,44.5101903],[-1.1957491,44.5089996],[-1.1954079,44.5086086],[-1.1940186,44.5085651],[-1.191936,44.5100624],[-1.1919482,44.5083981],[-1.1928725,44.5072459],[-1.1963191,44.5053495],[-1.1978784,44.5016788],[-1.2000542,44.4994419],[-1.200131,44.4940987],[-1.2011405,44.4912757],[-1.2000082,44.4849921],[-1.1957375,44.4776532],[-1.1965305,44.4735633],[-1.1959598,44.4698598],[-1.1971062,44.4683623],[-1.1966697,44.4656019],[-1.1950952,44.4646918],[-1.1963195,44.4646781],[-1.1950747,44.4644405],[-1.1961615,44.4645352],[-1.1967397,44.4636144],[-1.1960949,44.4630984],[-1.1973759,44.463698],[-1.1972023,44.4640859],[-1.1978049,44.4637881],[-1.1968958,44.4634173],[-1.1983235,44.4609809],[-1.197867,44.4599868],[-1.1985682,44.4603064],[-1.1983128,44.4598224],[-1.1992589,44.4595271],[-1.1988885,44.458845],[-1.1999423,44.4589773],[-1.197764,44.456984],[-1.2008975,44.4580844],[-1.1995067,44.4586198],[-1.2006784,44.4591025],[-1.2012977,44.4579553],[-1.1995836,44.4566469],[-1.1999513,44.454827],[-1.1965105,44.4504642],[-1.1962549,44.448444],[-1.1948623,44.4466856],[-1.187387,44.4406442],[-1.1841122,44.43907],[-1.1854382,44.4386749],[-1.184474,44.4390776],[-1.1875608,44.4400179],[-1.1867809,44.4388042],[-1.1911683,44.4406658],[-1.1927815,44.4401812],[-1.1928374,44.4395175],[-1.1899654,44.4383235],[-1.1833776,44.4333316],[-1.1769382,44.4326655],[-1.1759409,44.4331338],[-1.1756979,44.434745],[-1.1749703,44.4322941],[-1.1729061,44.4321021],[-1.1699404,44.4331242],[-1.1695134,44.4347111],[-1.1696794,44.4329266],[-1.1723684,44.4316616],[-1.1699246,44.4327063],[-1.1678619,44.4319853],[-1.1673069,44.4326273],[-1.1688529,44.4329517],[-1.1675565,44.4331665],[-1.1663719,44.4319613],[-1.1671414,44.4334025],[-1.1659094,44.4321865],[-1.1668933,44.4335135],[-1.1655562,44.4324597],[-1.1665206,44.4337199],[-1.1650727,44.432871],[-1.1662331,44.4339792],[-1.1691337,44.4332654],[-1.1687541,44.4337737],[-1.1657805,44.4347958],[-1.1639341,44.4376272],[-1.1625426,44.4375409],[-1.1625162,44.4370383],[-1.1605387,44.4378464],[-1.1627112,44.4377539],[-1.1601853,44.4398441],[-1.1587794,44.4393471],[-1.1605434,44.4400907],[-1.1609615,44.4412299],[-1.1586664,44.4423992],[-1.1574922,44.4441042],[-1.1554379,44.4447525],[-1.1534309,44.447379],[-1.1517128,44.4468882],[-1.153349,44.4474586],[-1.1518524,44.4490774],[-1.1513877,44.4512357],[-1.1497949,44.4512864],[-1.1484983,44.4528995],[-1.144291,44.4547404],[-1.1435005,44.4539874],[-1.1383997,44.4590937],[-1.1372435,44.4593766],[-1.1376415,44.4604706],[-1.1356479,44.4613865],[-1.1363013,44.4621557],[-1.1351553,44.4612786],[-1.1338366,44.4611733],[-1.1353998,44.4617021],[-1.133925,44.4619693],[-1.13349,44.4632607],[-1.13259,44.4630278],[-1.1343586,44.4638853],[-1.1329645,44.4642186],[-1.1336343,44.4647765],[-1.13066,44.4658778],[-1.1283267,44.4677769],[-1.1285515,44.4686156],[-1.1261173,44.4701895],[-1.1234369,44.4701341],[-1.1240165,44.4707783],[-1.1223854,44.471294],[-1.1224045,44.4726822],[-1.1210282,44.4722701],[-1.1208834,44.4732461],[-1.1197086,44.4731169],[-1.120068,44.474253],[-1.1191614,44.4741958],[-1.1194726,44.4753935],[-1.1184479,44.4755543],[-1.1190353,44.4762566],[-1.1168547,44.4771045],[-1.1156597,44.4768158],[-1.1137797,44.4779007],[-1.1139293,44.4789005],[-1.112845,44.4787667],[-1.1129709,44.4792483],[-1.1091884,44.4818278],[-1.1090962,44.4826872],[-1.1078691,44.4822154],[-1.1068324,44.4828051],[-1.1029122,44.4829329],[-1.103695,44.4822532],[-1.103353,44.4812405],[-1.1007869,44.4808255],[-1.0998978,44.4813523],[-1.0996424,44.4827167],[-1.1002811,44.4827194],[-1.0987606,44.4828158],[-1.0988657,44.48357],[-1.0976904,44.4842467],[-1.096208,44.4836854],[-1.0948147,44.4851007],[-1.0925566,44.4842894],[-1.0911355,44.4849781],[-1.0911677,44.485594],[-1.0911264,44.4847172],[-1.0904215,44.484475],[-1.0886937,44.4856046],[-1.0874748,44.4850883],[-1.0865404,44.4858551],[-1.087302,44.4875351],[-1.0860219,44.4858821],[-1.0838864,44.4870735],[-1.0817557,44.4873209],[-1.0822877,44.4881269],[-1.0774895,44.4870143],[-1.0764727,44.4877171],[-1.0758926,44.4871356],[-1.0749687,44.4872083]],[[-1.101779,44.4833085],[-1.1017576,44.483276],[-1.1017522,44.4832559],[-1.1018099,44.4830674],[-1.1017549,44.4830301],[-1.1017026,44.4830167],[-1.1017106,44.482988],[-1.1017254,44.4829631],[-1.1017254,44.4829325],[-1.1016972,44.4829114],[-1.1016476,44.482899],[-1.1016007,44.4829047],[-1.1015242,44.4828636],[-1.1014853,44.482854],[-1.1014397,44.4828712],[-1.1013807,44.4828684],[-1.1013325,44.4828712],[-1.1012989,44.4829258],[-1.1013016,44.4829669],[-1.1013177,44.4829918],[-1.1013955,44.483009],[-1.1014451,44.483032],[-1.10148,44.4830511],[-1.1014907,44.4830913],[-1.1014733,44.4831324],[-1.101362,44.4831841],[-1.1014102,44.4832597],[-1.1014947,44.4832482],[-1.1015403,44.4832903],[-1.1016034,44.4833114],[-1.101661,44.4833697],[-1.1017308,44.4833697],[-1.1017576,44.4833544],[-1.101779,44.4833085],[-1.101779,44.4833085]]]}}]}